[{"OBJECT_NAME":"STARLINK-4328","OBJECT_ID":"2022-077AE","EPOCH":"2026-03-09T22:12:51.901344","MEAN_MOTION":15.05650874,"ECCENTRICITY":0.00013606,"INCLINATION":97.6026,"RA_OF_ASC_NODE":251.5349,"ARG_OF_PERICENTER":83.1833,"MEAN_ANOMALY":276.9549,"EPHEMERIS_TYPE":0,"CLASSIFICATION_TYPE":"U","NORAD_CAT_ID":53071,"ELEMENT_SET_NO":999,"REV_AT_EPOCH":20102,"BSTAR":3.1406158e-5,"MEAN_MOTION_DOT":3.92e-6,"MEAN_MOTION_DDOT":0},{"OBJECT_NAME":"DELTA 1 DEB","OBJECT_ID":"1978-026BX","EPOCH":"2026-03-09T21:34:36.806304","MEAN_MOTION":15.0275865,"ECCENTRICITY":0.00371244,"INCLINATION":98.0194,"RA_OF_ASC_NODE":65.5332,"ARG_OF_PERICENTER":51.7385,"MEAN_ANOMALY":308.7169,"EPHEMERIS_TYPE":0,"CLASSIFICATION_TYPE":"U","NORAD_CAT_ID":12230,"ELEMENT_SET_NO":999,"REV_AT_EPOCH":36609,"BSTAR":0.0014350783,"MEAN_MOTION_DOT":0.00019449,"MEAN_MOTION_DDOT":0}]
